OBJECT_NAME,OBJECT_ID,EPOCH,MEAN_MOTION,ECCENTRICITY,INCLINATION,RA_OF_ASC_NODE,ARG_OF_PERICENTER,MEAN_ANOMALY,EPHEMERIS_TYPE,CLASSIFICATION_TYPE,NORAD_CAT_ID,ELEMENT_SET_NO,REV_AT_EPOCH,BSTAR,MEAN_MOTION_DOT,MEAN_MOTION_DDOT
S-NET D,2018-014G,2026-06-14T11:49:51.649824,15.16650086,.0009193,97.5371,70.3007,38.5698,321.6190,0,U,43186,999,45835,.25974E-3,.5019E-4,0
S-NET B,2018-014H,2026-06-14T07:21:15.087168,15.16618848,.0009726,97.5379,70.1021,34.4282,325.7579,0,U,43187,999,45832,.24079E-3,.4644E-4,0
S-NET A,2018-014J,2026-06-14T05:28:14.499840,15.16655783,.0009609,97.5388,70.2319,35.3723,324.8145,0,U,43188,999,45831,.26897E-3,.5201E-4,0
S-NET C,2018-014K,2026-06-14T05:51:48.180096,15.16610423,.0010783,97.5403,70.3226,27.3893,332.7906,0,U,43189,999,45686,.24025E-3,.4633E-4,0
PAZ,2018-020A,2026-06-14T11:20:04.672320,15.19144156,.0001699,97.4454,172.8967,85.5601,274.5828,0,U,43215,999,46059,.76707E-4,.1544E-4,0
GOES 17,2018-022A,2026-06-14T10:58:10.847136,1.00270105,.0000403,0.9302,85.7560,33.9043,218.1437,0,U,43226,999,3039,0,-.175E-5,0
LKW-4,2018-025A,2026-06-14T12:24:37.103040,15.62081787,.0001816,97.6334,336.1817,304.7112,55.3974,0,U,43236,999,45961,.45443E-3,.39764E-3,0
ZHUHAI-1 OVS-02,2018-040B,2026-06-14T12:59:25.144800,15.24994249,.0001546,97.0382,182.9277,254.7290,105.3778,0,U,43440,999,45231,.2804E-3,.693E-4,0
ZHUHAI-1 OHS-02,2018-040C,2026-06-14T12:40:04.514592,15.25847706,.0007785,97.0367,189.8519,230.9629,129.0918,0,U,43441,999,11387,.27822E-3,.706E-4,0
GAOFEN-6,2018-048A,2026-06-14T11:54:22.978656,14.76597015,.0011626,97.8553,228.3117,176.0515,184.0789,0,U,43484,999,43299,.14468E-3,.961E-5,0
LUOJIA-1 01,2018-048B,2026-06-14T11:35:40.875072,14.87276542,.0010086,97.8109,243.7139,125.5915,234.6242,0,U,43485,999,43381,.28422E-3,.251E-4,0
PAKTES 1A,2018-056A,2026-06-14T12:50:26.630880,14.99099891,.0022244,98.1297,321.9085,114.5023,245.8522,0,U,43529,999,43152,.21885E-3,.2606E-4,0
PRSS-1,2018-056B,2026-06-14T11:44:20.998752,14.81986844,.0001684,97.7828,233.4335,76.4236,283.7165,0,U,43530,999,42803,.17043E-3,.1301E-4,0
HAIYANG-1C,2018-068A,2026-06-14T12:34:45.672672,14.34179029,.001208,98.5197,237.8706,101.2404,259.0139,0,U,43609,999,40670,.12998E-3,.321E-5,0
SSTL S1-4,2018-071A,2026-06-14T13:07:32.725056,14.96181043,.0001471,97.5049,37.2722,99.4413,260.6975,0,U,43618,999,42254,.78622E-4,.831E-5,0
HAIYANG-2B,2018-081A,2026-06-14T13:14:19.133376,13.79307837,.0000584,99.3280,174.3476,7.5009,352.6152,0,U,43655,999,38456,.36716E-3,.333E-5,0
CZ-4B R/B,2018-081B,2026-06-14T09:21:32.092128,14.31865180,.0203726,99.3681,83.0921,274.8784,82.9166,0,U,43656,999,39890,.44792E-4,.9E-6,0
CFOSAT,2018-083A,2026-06-14T12:29:07.444320,15.16359723,.0002433,97.3601,170.1295,93.0154,267.1358,0,U,43662,999,42203,.15662E-3,.2974E-4,0
TEN-KOH,2018-084G,2026-06-14T12:39:07.276320,15.02934416,.0011322,98.0773,357.7788,121.9477,238.2849,0,U,43677,999,41576,.15774E-3,.2054E-4,0
DIWATA-2B,2018-084H,2026-06-14T12:03:23.385600,15.00441011,.0012336,98.1177,1.5940,178.8655,181.2598,0,U,43678,999,41581,.19736E-3,.242E-4,0
STARS-AO,2018-084J,2026-06-14T12:01:40.594656,15.17026842,.0002729,98.0502,19.3073,142.6719,217.4703,0,U,43679,999,41706,.27238E-3,.5312E-4,0
AUTCUBE 2,2018-084K,2026-06-14T12:19:36.389568,15.10075733,.0010129,98.0711,11.5468,57.4398,302.7807,0,U,43681,999,41652,.24231E-3,.3878E-4,0
METOP-C,2018-087A,2026-06-14T11:07:44.777280,14.21511415,.0001669,98.6645,225.1170,132.5923,227.5395,0,U,43689,999,39444,.63042E-4,.95E-6,0
ES'HAIL 2,2018-090A,2026-06-14T11:31:00.200352,1.00269213,.0001518,0.0004,359.7326,123.3043,338.2873,0,U,43700,999,2765,0,.151E-5,0
MOHAMMED VI-B,2018-095A,2026-06-14T11:12:50.402592,14.77114289,.0001262,97.9563,237.8298,96.0995,264.0359,0,U,43717,999,40778,.76922E-4,.493E-5,0
HYSIS,2018-096A,2026-06-14T12:06:43.126848,14.78693358,.0001894,97.9848,232.2740,108.4673,251.6744,0,U,43719,999,40702,.21813E-3,.1548E-4,0
COSMOS 2530 (RODNIK-S 16),2018-097A,2026-06-14T13:25:26.181984,12.42881028,.0020282,82.5149,223.9112,45.2208,315.0517,0,U,43751,999,34196,.32147E-3,.55E-6,0
COSMOS 2531 (RODNIK-S 17),2018-097B,2026-06-14T12:01:41.640960,12.42912478,.001778,82.5195,225.0048,63.8763,296.4143,0,U,43752,999,34197,.14327E-3,.3E-6,0
COSMOS 2532 (RODNIK-S 18),2018-097C,2026-06-14T12:42:24.099840,12.42909521,.0019186,82.5138,223.7745,65.6961,294.6120,0,U,43753,999,34194,.12122E-3,.27E-6,0
MINXSS-2,2018-099A,2026-06-14T01:13:49.937088,15.46704865,.00064473,97.4547,241.2439,268.3563,91.6948,0,U,43758,999,41364,.6985835E-3,.34951E-3,0
SIRION PATHFINDER-2,2018-099B,2026-06-14T09:45:53.701056,15.14527061,.0007397,97.4257,214.5302,316.7693,43.2958,0,U,43759,999,41220,.26191E-3,.4763E-4,0
