{"_default": { "9": {"norad_id": "43700", "name": "ES'HAIL 2", "tle1": "1 43700U 18090A   26165.47986343  .00000151  00000-0  00000+0 0  9992", "tle2": "2 43700   0.0004 359.7326 0001518 123.3043 338.2873  1.00269213 27654", "object_type": "PAYLOAD", "criticality_score": 9.0, "last_updated": "2026-06-14T17:46:05.057534+00:00", "maneuver_count": 0, "owner": "N/A"}, "10": {"norad_id": "43678", "name": "DIWATA 2B", "tle1": "1 43678U 18084H   26165.50235400  .00002420  00000-0  19736-3 0  9995", "tle2": "2 43678  98.1177   1.5940 0012336 178.8655 181.2598 15.00441011415817", "object_type": "PAYLOAD", "criticality_score": 9.0, "last_updated": "2026-06-14T17:46:05.057534+00:00", "maneuver_count": 0, "owner": "N/A"}, "11": {"norad_id": "43677", "name": "TEN-KOH", "tle1": "1 43677U 18084G   26165.52716755  .00002054  00000-0  15774-3 0  9994", "tle2": "2 43677  98.0773 357.7788 0011322 121.9477 238.2849 15.02934416415762", "object_type": "PAYLOAD", "criticality_score": 9.0, "last_updated": "2026-06-14T17:46:05.057534+00:00", "maneuver_count": 0, "owner": "N/A"}, "42": {"norad_id": "43681", "name": "AUTCUBE 2", "tle1": "1 43681U 18084K   26165.51361562  .00003878  00000-0  24231-3 0  9993", "tle2": "2 43681  98.0711  11.5468 0010129  57.4398 302.7807 15.10075733416521", "object_type": "PAYLOAD", "criticality_score": 9.0, "last_updated": "2026-06-14T17:46:05.057534+00:00", "maneuver_count": 0, "owner": "N/A"}, "43": {"norad_id": "43656", "name": "CZ-4B R/B", "tle1": "1 43656U 18081B   26165.38995477  .00000090  00000-0  44792-4 0  9993", "tle2": "2 43656  99.3681  83.0921 0203726 274.8784  82.9166 14.31865180398903", "object_type": "ROCKET_BODY", "criticality_score": 9.0, "last_updated": "2026-06-14T17:46:05.057534+00:00", "maneuver_count": 0, "owner": "N/A"}, "76": {"norad_id": "43186", "name": "S-NET D", "tle1": "1 43186U 18014G   26165.49295891  .00005019  00000-0  25974-3 0  9998", "tle2": "2 43186  97.5371  70.3007 0009193  38.5698 321.6190 15.16650086458359", "object_type": "PAYLOAD", "criticality_score": 9.0, "last_updated": "2026-06-14T17:46:05.057534+00:00", "maneuver_count": 0, "owner": "N/A"}, "77": {"norad_id": "43189", "name": "S-NET C", "tle1": "1 43189U 18014K   26165.24430764  .00004633  00000-0  24025-3 0  9991", "tle2": "2 43189  97.5403  70.3226 0010783  27.3893 332.7906 15.16610423456864", "object_type": "PAYLOAD", "criticality_score": 9.0, "last_updated": "2026-06-14T17:46:05.057534+00:00", "maneuver_count": 0, "owner": "N/A"}, "78": {"norad_id": "43187", "name": "S-NET B", "tle1": "1 43187U 18014H   26165.30642462  .00004644  00000-0  24079-3 0  9997", "tle2": "2 43187  97.5379  70.1021 0009726  34.4282 325.7579 15.16618848458321", "object_type": "PAYLOAD", "criticality_score": 9.0, "last_updated": "2026-06-14T17:46:05.057534+00:00", "maneuver_count": 0, "owner": "N/A"}, "79": {"norad_id": "43188", "name": "S-NET A", "tle1": "1 43188U 18014J   26165.22794560  .00005201  00000-0  26897-3 0  9996", "tle2": "2 43188  97.5388  70.2319 0009609  35.3723 324.8145 15.16655783458310", "object_type": "PAYLOAD", "criticality_score": 9.0, "last_updated": "2026-06-14T17:46:05.057534+00:00", "maneuver_count": 0, "owner": "N/A"}, "104": {"norad_id": "43758", "name": "MINXSS-2", "tle1": "1 43758U 18099A   26165.05127242  .00034951  00000-0  69858-3 0  9998", "tle2": "2 43758  97.4547 241.2439 0006447 268.3563  91.6948 15.46704865413645", "object_type": "PAYLOAD", "criticality_score": 9.0, "last_updated": "2026-06-14T17:46:05.057534+00:00", "maneuver_count": 0, "owner": "N/A"}, "105": {"norad_id": "43689", "name": "METOP-C", "tle1": "1 43689U 18087A   26165.46371270  .00000095  00000-0  63042-4 0  9997", "tle2": "2 43689  98.6645 225.1170 0001669 132.5923 227.5395 14.21511415394447", "object_type": "PAYLOAD", "criticality_score": 9.0, "last_updated": "2026-06-14T17:46:05.057534+00:00", "maneuver_count": 0, "owner": "N/A"}, "106": {"norad_id": "43679", "name": "STARS-AO", "tle1": "1 43679U 18084J   26165.50116429  .00005312  00000-0  27238-3 0  9994", "tle2": "2 43679  98.0502  19.3073 0002729 142.6719 217.4703 15.17026842417066", "object_type": "PAYLOAD", "criticality_score": 9.0, "last_updated": "2026-06-14T17:46:05.057534+00:00", "maneuver_count": 0, "owner": "N/A"}, "137": {"norad_id": "43485", "name": "LUOJIA-1 01", "tle1": "1 43485U 18048B   26165.48311198  .00002510  00000-0  28422-3 0  9999", "tle2": "2 43485  97.8109 243.7139 0010086 125.5915 234.6242 14.87276542433810", "object_type": "PAYLOAD", "criticality_score": 9.0, "last_updated": "2026-06-14T17:46:05.057534+00:00", "maneuver_count": 0, "owner": "N/A"}, "212": {"norad_id": "43759", "name": "SIRION PATHFINDER-2", "tle1": "1 43759U 18099B   26165.40687154  .00004763  00000-0  26191-3 0  9992", "tle2": "2 43759  97.4257 214.5302 0007397 316.7693  43.2958 15.14527061412204", "object_type": "PAYLOAD", "criticality_score": 9.0, "last_updated": "2026-06-14T17:46:05.057534+00:00", "maneuver_count": 0, "owner": "N/A"}, "226": {"norad_id": "43441", "name": "ZHUHAI-1 OHS-02", "tle1": "1 43441U 18040C   26165.52783003  .00007060  00000-0  27822-3 0  9994", "tle2": "2 43441  97.0367 189.8519 0007785 230.9629 129.0918 15.25847706113874", "object_type": "PAYLOAD", "criticality_score": 9.0, "last_updated": "2026-06-14T17:46:05.057534+00:00", "maneuver_count": 0, "owner": "N/A"}, "233": {"norad_id": "43440", "name": "ZHUHAI-1 OVS-02", "tle1": "1 43440U 18040B   26165.54126325  .00006930  00000-0  28040-3 0  9991", "tle2": "2 43440  97.0382 182.9277 0001546 254.7290 105.3778 15.24994249452312", "object_type": "PAYLOAD", "criticality_score": 9.0, "last_updated": "2026-06-14T17:46:05.057534+00:00", "maneuver_count": 0, "owner": "N/A"}, "291": {"norad_id": "43618", "name": "SSTL S1-4", "tle1": "1 43618U 18071A   26165.54690654  .00000831  00000-0  78622-4 0  9999", "tle2": "2 43618  97.5049  37.2722 0001471  99.4413 260.6975 14.96181043422543", "object_type": "PAYLOAD", "criticality_score": 9.0, "last_updated": "2026-06-14T17:46:05.057534+00:00", "maneuver_count": 0, "owner": "N/A"}, "292": {"norad_id": "43717", "name": "MOHAMMED VI-B", "tle1": "1 43717U 18095A   26165.46725003  .00000493  00000-0  76922-4 0  9998", "tle2": "2 43717  97.9563 237.8298 0001262  96.0995 264.0359 14.77114289407780", "object_type": "PAYLOAD", "criticality_score": 9.0, "last_updated": "2026-06-14T17:46:05.057534+00:00", "maneuver_count": 0, "owner": "N/A"}, "305": {"norad_id": "43226", "name": "GOES 17", "tle1": "1 43226U 18022A   26165.45706999 -.00000175  00000-0  00000+0 0  9992", "tle2": "2 43226   0.9302  85.7560 0000403  33.9043 218.1437  1.00270105 30390", "object_type": "PAYLOAD", "criticality_score": 9.0, "last_updated": "2026-06-14T17:46:05.057534+00:00", "maneuver_count": 0, "owner": "N/A"}, "409": {"norad_id": "43484", "name": "GAOFEN 6", "tle1": "1 43484U 18048A   26165.49609929  .00000961  00000-0  14468-3 0  9994", "tle2": "2 43484  97.8553 228.3117 0011626 176.0515 184.0789 14.76597015432996", "object_type": "PAYLOAD", "criticality_score": 9.0, "last_updated": "2026-06-14T17:46:05.057534+00:00", "maneuver_count": 0, "owner": "N/A"}, "421": {"norad_id": "43719", "name": "HYSIS", "tle1": "1 43719U 18096A   26165.50466582  .00001548  00000-0  21813-3 0  9990", "tle2": "2 43719  97.9848 232.2740 0001894 108.4673 251.6744 14.78693358407028", "object_type": "PAYLOAD", "criticality_score": 9.0, "last_updated": "2026-06-14T17:46:05.057534+00:00", "maneuver_count": 0, "owner": "N/A"}, "422": {"norad_id": "43662", "name": "CFOSAT", "tle1": "1 43662U 18083A   26165.52022505  .00002974  00000-0  15662-3 0  9997", "tle2": "2 43662  97.3601 170.1295 0002433  93.0154 267.1358 15.16359723422033", "object_type": "PAYLOAD", "criticality_score": 9.0, "last_updated": "2026-06-14T17:46:05.057534+00:00", "maneuver_count": 0, "owner": "N/A"}, "440": {"norad_id": "43609", "name": "HAIYANG 1C", "tle1": "1 43609U 18068A   26165.52413973  .00000321  00000-0  12998-3 0  9997", "tle2": "2 43609  98.5197 237.8706 0012080 101.2404 259.0139 14.34179029406705", "object_type": "PAYLOAD", "criticality_score": 9.0, "last_updated": "2026-06-14T17:46:05.057534+00:00", "maneuver_count": 0, "owner": "N/A"}, "480": {"norad_id": "43529", "name": "PAKTES 1A", "tle1": "1 43529U 18056A   26165.53503045  .00002606  00000-0  21885-3 0  9999", "tle2": "2 43529  98.1297 321.9085 0022244 114.5023 245.8522 14.99099891431521", "object_type": "PAYLOAD", "criticality_score": 9.0, "last_updated": "2026-06-14T17:46:05.057534+00:00", "maneuver_count": 0, "owner": "N/A"}, "482": {"norad_id": "43530", "name": "PRSS 1", "tle1": "1 43530U 18056B   26165.48913193  .00001301  00000-0  17043-3 0  9996", "tle2": "2 43530  97.7828 233.4335 0001684  76.4236 283.7165 14.81986844428030", "object_type": "PAYLOAD", "criticality_score": 9.0, "last_updated": "2026-06-14T17:46:05.057534+00:00", "maneuver_count": 0, "owner": "N/A"}, "532": {"norad_id": "43236", "name": "LKW-4", "tle1": "1 43236U 18025A   26165.51709610  .00039764  00000-0  45443-3 0  9995", "tle2": "2 43236  97.6334 336.1817 0001816 304.7112  55.3974 15.62081787459618", "object_type": "PAYLOAD", "criticality_score": 9.0, "last_updated": "2026-06-14T17:46:05.057534+00:00", "maneuver_count": 0, "owner": "N/A"}, "535": {"norad_id": "43655", "name": "HAIYANG 2B", "tle1": "1 43655U 18081A   26165.55161034  .00000333  00000-0  36716-3 0  9991", "tle2": "2 43655  99.3280 174.3476 0000584   7.5009 352.6152 13.79307837384564", "object_type": "PAYLOAD", "criticality_score": 9.0, "last_updated": "2026-06-14T17:46:05.057534+00:00", "maneuver_count": 0, "owner": "N/A"}, "608": {"norad_id": "43751", "name": "COSMOS 2530", "tle1": "1 43751U 18097A   26165.55933081  .00000055  00000-0  32147-3 0  9999", "tle2": "2 43751  82.5149 223.9112 0020282  45.2208 315.0517 12.42881028341967", "object_type": "PAYLOAD", "criticality_score": 9.0, "last_updated": "2026-06-14T17:46:05.057534+00:00", "maneuver_count": 0, "owner": "N/A"}, "609": {"norad_id": "43752", "name": "COSMOS 2531", "tle1": "1 43752U 18097B   26165.50117640  .00000030  00000-0  14327-3 0  9993", "tle2": "2 43752  82.5195 225.0048 0017780  63.8763 296.4143 12.42912478341973", "object_type": "PAYLOAD", "criticality_score": 9.0, "last_updated": "2026-06-14T17:46:05.057534+00:00", "maneuver_count": 0, "owner": "N/A"}, "610": {"norad_id": "43753", "name": "COSMOS 2532", "tle1": "1 43753U 18097C   26165.52944560  .00000027  00000-0  12122-3 0  9992", "tle2": "2 43753  82.5138 223.7745 0019186  65.6961 294.6120 12.42909521341949", "object_type": "PAYLOAD", "criticality_score": 9.0, "last_updated": "2026-06-14T17:46:05.057534+00:00", "maneuver_count": 0, "owner": "N/A"}, "641": {"norad_id": "43215", "name": "PAZ", "tle1": "1 43215U 18020A   26165.47227630  .00001544  00000-0  76707-4 0  9992", "tle2": "2 43215  97.4454 172.8967 0001699  85.5601 274.5828 15.19144156460597", "object_type": "PAYLOAD", "criticality_score": 9.0, "last_updated": "2026-06-14T17:46:05.057534+00:00", "maneuver_count": 0, "owner": "N/A"}}}